STARLINK-31783          
1 59750U 24090W   24147.58334491 -.01719226  00000+0 -13673-1 0  9996
2 59750  43.0004 298.3429 0001268 260.2684 268.9329 15.73327943  3344
STARLINK-31808          
1 59751U 24090X   24147.91667824 -.01712112  00000+0 -14365-1 0  9999
2 59751  43.0004 296.3234 0001427 265.3118 355.4185 15.72074984  3392
STARLINK-31822          
1 59752U 24090Y   24147.91667824 -.01711204  00000+0 -14359-1 0  9994
2 59752  43.0004 296.3185 0001418 266.0357 356.6879 15.72070775  3398
STARLINK-11125 [DTC]    
1 59753U 24091A   24147.58419161 -.00117901  00000+0 -52515-3 0  9999
2 59753  53.1614 183.0516 0000904  74.3023 285.8101 15.83780459  3083
STARLINK-11118 [DTC]    
1 59754U 24091B   24147.58334491  .00082644  00000+0  36617-3 0  9990
2 59754  53.1602 183.0311 0001455  66.4201 300.3812 15.83725551  3080
STARLINK-11132 [DTC]    
1 59755U 24091C   24147.58334491  .00055128  00000+0  24587-3 0  9991
2 59755  53.1601 183.0073 0000860 104.1803 274.0661 15.83745771  3087
STARLINK-11131 [DTC]    
1 59756U 24091D   24147.58334491  .00059677  00000+0  26577-3 0  9996
2 59756  53.1602 182.9833 0001082  82.1109 307.5946 15.83744598  3086
STARLINK-11114 [DTC]    
1 59757U 24091E   24147.58334491  .00062773  00000+0  27932-3 0  9994
2 59757  53.1601 182.9597 0000933  80.1861 320.9793 15.83742518  3023
STARLINK-11105 [DTC]    
1 59758U 24091F   24147.58334491  .00088546  00000+0  39192-3 0  9992
2 59758  53.1600 182.9361 0000917  88.2281 324.4110 15.83720898  3028
STARLINK-11097 [DTC]    
1 59759U 24091G   24147.58334491  .00049052  00000+0  21921-3 0  9993
2 59759  53.1600 182.9124 0000875  76.9950 347.0828 15.83752475  3085
STARLINK-11098 [DTC]    
1 59760U 24091H   24147.58334491  .00056469  00000+0  25169-3 0  9993
2 59760  53.1599 182.8887 0000964  72.1257   3.4107 15.83749649  3022
STARLINK-11117 [DTC]    
1 59761U 24091J   24147.91667824  .00002296  00000+0  13387-4 0  9999
2 59761  53.1600 181.1837 0000984  89.0009  99.6340 15.83788194  3133
STARLINK-11110 [DTC]    
1 59762U 24091K   24147.58334491 -.00513351  00000+0 -23157-2 0  9999
2 59762  53.1597 182.8432 0000955  71.9929  25.4993 15.84548826  3090
STARLINK-11104 [DTC]    
1 59763U 24091L   24147.58334491 -.00506130  00000+0 -22405-2 0  9992
2 59763  53.1597 182.8219 0000976  71.7682  36.0082 15.84922021  3080
STARLINK-11111 [DTC]    
1 59764U 24091M   24147.58334491 -.00496229  00000+0 -21256-2 0  9993
2 59764  53.1594 182.7812 0000976  69.7477  57.6955 15.85576413  3084
STARLINK-11106 [DTC]    
1 59765U 24091N   24147.58334491 -.00495784  00000+0 -21490-2 0  9999
2 59765  53.1597 182.8021 0000968  69.6146  47.7286 15.85331774  3080
STARLINK-31739          
1 59766U 24091P   24147.58334491 -.00794754  00000+0 -42820-2 0  9999
2 59766  53.1593 182.8433 0001082  72.8370  24.1908 15.81492362  3039
STARLINK-31828          
1 59767U 24091Q   24147.58334491 -.00759005  00000+0 -40650-2 0  9999
2 59767  53.1593 182.8657 0001059  72.8098  13.4752 15.81530925  2832
STARLINK-31826          
1 59768U 24091R   24147.58334491 -.00735769  00000+0 -39270-2 0  9997
2 59768  53.1594 182.8801 0001019  72.3596   6.8702 15.81546873  3098
STARLINK-31830          
1 59769U 24091S   24147.91667824 -.00803431  00000+0 -44435-2 0  9995
2 59769  53.1597 181.1768 0001056  90.6772 101.1090 15.80953765  2882
STARLINK-31829          
1 59770U 24091T   24147.91667824 -.00772022  00000+0 -42446-2 0  9998
2 59770  53.1598 181.1981 0001053  89.8715  91.6726 15.81001621  2881
STARLINK-31786          
1 59771U 24091U   24147.58334491 -.00768663  00000+0 -41238-2 0  9997
2 59771  53.1595 182.8582 0001071  74.8835  15.0068 15.81518284  3036
STARLINK-31835          
1 59772U 24091V   24147.58334491 -.00805050  00000+0 -43468-2 0  9997
2 59772  53.1594 182.8361 0001083  73.4542  27.2427 15.81472275  2834
STARLINK-31363          
1 59782U 24093A   24147.91667824 -.00493825  87881-4 -11913-2 0  9996
2 59782  43.0015 325.8184 0001581 272.1686 302.0901 15.95386320  2597
STARLINK-31868          
1 59783U 24093B   24147.58334491 -.00714787  00000+0 -29086-2 0  9997
2 59783  43.0018 328.2763 0001679 268.1392  39.5825 15.86885654  2544
STARLINK-31848          
1 59784U 24093C   24147.58334491 -.00718805  00000+0 -29192-2 0  9991
2 59784  43.0017 328.2718 0001682 268.2933  41.2328 15.86934488  2548
STARLINK-31890          
1 59785U 24093D   24147.91667824 -.00723476  00000+0 -30078-2 0  9993
2 59785  43.0015 326.2114 0001570 274.9785 143.0137 15.86473232  2577
STARLINK-31862          
1 59786U 24093E   24147.91667824 -.00730114  00000+0 -30250-2 0  9993
2 59786  43.0015 326.2028 0001570 275.1332 146.1793 15.86557956  2447
STARLINK-31870          
1 59787U 24093F   24147.58334491 -.00727321  00000+0 -29425-2 0  9996
2 59787  43.0017 328.2629 0001682 268.1217  44.9246 15.87031042  2494
STARLINK-31888          
1 59788U 24093G   24147.91667824 -.00741631  00000+0 -30618-2 0  9999
2 59788  43.0015 326.1924 0001566 274.5282 150.9041 15.86656478  2544
STARLINK-31863          
1 59789U 24093H   24147.58334491 -.00739649  00000+0 -29801-2 0  9992
2 59789  43.0017 328.2523 0001688 268.2642  48.9683 15.87141830  2540
STARLINK-31873          
1 59790U 24093J   24147.58334491 -.00751987  00000+0 -30180-2 0  9995
2 59790  43.0017 328.2421 0001712 266.0327  55.1830 15.87248250  2541
STARLINK-31865          
1 59791U 24093K   24147.83334491 -.00760017  00000+0 -31063-2 0  9999
2 59791  43.0015 326.6949 0001569 269.9021  43.6580 15.86901690  2581
STARLINK-31893          
1 59792U 24093L   24147.58334491 -.00764444  00000+0 -30556-2 0  9996
2 59792  43.0017 328.2317 0001708 265.8924  59.4849 15.87357917  2551
STARLINK-31901          
1 59793U 24093M   24147.58334491 -.00767787  00000+0 -30635-2 0  9998
2 59793  43.0017 328.2276 0001710 265.9720  60.9242 15.87401201  2543
STARLINK-31823          
1 59794U 24093N   24147.58334491 -.00773623  00000+0 -30806-2 0  9995
2 59794  43.0017 328.2225 0001714 266.1401  62.7825 15.87454648  2541
STARLINK-31916          
1 59795U 24093P   24147.58334491 -.00778232  00000+0 -30929-2 0  9993
2 59795  43.0016 328.2179 0001714 266.3079  64.4769 15.87504284  2540
STARLINK-31915          
1 59796U 24093Q   24147.83334491  .01110757  66640-3  16516-2 0  9995
2 59796  43.0018 326.2847 0007486 283.3327 192.7966 16.04062278  2580
STARLINK-31907          
1 59797U 24093R   24147.58334491 -.00784199  00000+0 -31106-2 0  9992
2 59797  43.0015 328.2128 0001718 266.2899  66.4356 15.87556488  2499
STARLINK-31687          
1 59798U 24093S   24147.83334491 -.00834125  00000+0 -33300-2 0  9994
2 59798  43.0014 326.6271 0001576 270.4045  69.7992 15.87543254  2581
STARLINK-31810          
1 59799U 24093T   24147.58334491 -.00814904  00000+0 -32004-2 0  9990
2 59799  43.0015 328.1868 0001724 266.3864  76.6199 15.87824911  2544
STARLINK-31812          
1 59800U 24093U   24147.58334491 -.00797478  00000+0 -31504-2 0  9993
2 59800  43.0014 328.2022 0001723 266.2374  70.8152 15.87668155  2601
STARLINK-31815          
1 59801U 24093V   24147.58334491 -.00801295  00000+0 -31596-2 0  9998
2 59801  43.0014 328.1979 0001720 266.4185  72.2940 15.87713972  2543
STARLINK-31814          
1 59802U 24093W   24147.58334491 -.00808356  00000+0 -31809-2 0  9991
2 59802  43.0015 328.1924 0001719 266.4203  74.5274 15.87771041  2540
STARLINK-31794          
1 59803U 24093X   24147.58334491 -.00828929  00000+0 -32424-2 0  9994
2 59803  43.0015 328.1761 0001721 266.4723  80.9194 15.87937023  2603
STARLINK-31824          
1 59804U 24093Y   24147.58334491 -.00822431  00000+0 -32232-2 0  9994
2 59804  43.0016 328.1814 0001721 266.4034  78.9545 15.87883794  2498
